QIANFAN-1               
1 60379U 24140A   25355.43225220  .00000087  00000+0  11535-3 0  9998
2 60379  88.9769 298.3807 0016761 183.9776 176.1245 13.50979387 68522
QIANFAN-2               
1 60380U 24140B   25355.46122038  .00000082  00000+0  10875-3 0  9997
2 60380  88.9755 298.2159 0013002 153.5786 206.6030 13.50983084 68583
QIANFAN-3               
1 60381U 24140C   25355.46938219  .00000093  00000+0  12545-3 0  9992
2 60381  88.9748 298.3470 0013687 166.7195 193.4320 13.50983670 68498
QIANFAN-4               
1 60382U 24140D   25355.44458720  .00000080  00000+0  10566-3 0  9992
2 60382  88.9773 298.2494 0013134 156.3126 203.8632 13.50979359 68613
QIANFAN-5               
1 60383U 24140E   25355.42002066  .00000084  00000+0  11125-3 0  9995
2 60383  88.9748 298.3775 0014572 179.0188 181.0994 13.50981346 68477
QIANFAN-6               
1 60384U 24140F   25355.44061060  .00000093  00000+0  12547-3 0  9996
2 60384  88.9774 298.1239 0013064 162.2538 197.9072 13.50981727 68676
QIANFAN-7               
1 60385U 24140G   25355.43580146  .00000569  00000+0  22472-3 0  9993
2 60385  88.9789 292.7001 0016180  19.8115 340.3704 14.27660611 71637
QIANFAN-8               
1 60386U 24140H   25355.44888703  .00000079  00000+0  10311-3 0  9990
2 60386  88.9776 298.3607 0016420 166.2450 193.9152 13.50979610 68524
